[{"OBJECT_NAME":"KANOPUS-V 4","OBJECT_ID":"2018-014B","EPOCH":"2026-03-09T22:48:00.889056","MEAN_MOTION":15.22813706,"ECCENTRICITY":0.00013304,"INCLINATION":97.365,"RA_OF_ASC_NODE":336.6243,"ARG_OF_PERICENTER":69.4905,"MEAN_ANOMALY":290.6475,"EPHEMERIS_TYPE":0,"CLASSIFICATION_TYPE":"U","NORAD_CAT_ID":43181,"ELEMENT_SET_NO":999,"REV_AT_EPOCH":44963,"BSTAR":0.00051006309,"MEAN_MOTION_DOT":0.00011868,"MEAN_MOTION_DDOT":0},{"OBJECT_NAME":"TIANYI E","OBJECT_ID":"2025-103E","EPOCH":"2026-03-09T23:53:00.366432","MEAN_MOTION":15.21814724,"ECCENTRICITY":0.00039842,"INCLINATION":97.3824,"RA_OF_ASC_NODE":143.2002,"ARG_OF_PERICENTER":141.8927,"MEAN_ANOMALY":218.2592,"EPHEMERIS_TYPE":0,"CLASSIFICATION_TYPE":"U","NORAD_CAT_ID":64052,"ELEMENT_SET_NO":999,"REV_AT_EPOCH":4501,"BSTAR":0.00058098281,"MEAN_MOTION_DOT":0.0001314,"MEAN_MOTION_DDOT":0}]
